[{"OBJECT_NAME":"STARLINK-34590","OBJECT_ID":"2025-139M","EPOCH":"2025-08-17T07:48:23.293440","MEAN_MOTION":15.39619139,"ECCENTRICITY":6.01e-5,"INCLINATION":53.1585,"RA_OF_ASC_NODE":357.8118,"ARG_OF_PERICENTER":103.5283,"MEAN_ANOMALY":256.5788,"EPHEMERIS_TYPE":0,"CLASSIFICATION_TYPE":"U","NORAD_CAT_ID":64675,"ELEMENT_SET_NO":999,"REV_AT_EPOCH":897,"BSTAR":0.0014307,"MEAN_MOTION_DOT":0.00057256,"MEAN_MOTION_DDOT":0},{"OBJECT_NAME":"STARLINK-34573","OBJECT_ID":"2025-139N","EPOCH":"2025-08-17T13:48:55.376352","MEAN_MOTION":15.39630431,"ECCENTRICITY":0.0001184,"INCLINATION":53.1601,"RA_OF_ASC_NODE":356.528,"ARG_OF_PERICENTER":79.758,"MEAN_ANOMALY":280.3558,"EPHEMERIS_TYPE":0,"CLASSIFICATION_TYPE":"U","NORAD_CAT_ID":64676,"ELEMENT_SET_NO":999,"REV_AT_EPOCH":901,"BSTAR":0.00086588,"MEAN_MOTION_DOT":0.00034403,"MEAN_MOTION_DDOT":0},{"OBJECT_NAME":"STARLINK-34605","OBJECT_ID":"2025-139P","EPOCH":"2025-08-17T14:00:01.999872","MEAN_MOTION":15.41252479,"ECCENTRICITY":0.0002303,"INCLINATION":53.162,"RA_OF_ASC_NODE":356.3517,"ARG_OF_PERICENTER":3.6006,"MEAN_ANOMALY":110.9279,"EPHEMERIS_TYPE":0,"CLASSIFICATION_TYPE":"U","NORAD_CAT_ID":64677,"ELEMENT_SET_NO":999,"REV_AT_EPOCH":593,"BSTAR":8.6993e-6,"MEAN_MOTION_DOT":-4.1e-7,"MEAN_MOTION_DDOT":0},{"OBJECT_NAME":"STARLINK-34525","OBJECT_ID":"2025-139Q","EPOCH":"2025-08-17T15:15:13.504608","MEAN_MOTION":15.39623444,"ECCENTRICITY":0.0001399,"INCLINATION":53.1607,"RA_OF_ASC_NODE":356.1913,"ARG_OF_PERICENTER":82.1599,"MEAN_ANOMALY":277.9565,"EPHEMERIS_TYPE":0,"CLASSIFICATION_TYPE":"U","NORAD_CAT_ID":64678,"ELEMENT_SET_NO":999,"REV_AT_EPOCH":902,"BSTAR":0.00097539,"MEAN_MOTION_DOT":0.00038818,"MEAN_MOTION_DDOT":0},{"OBJECT_NAME":"STARLINK-34489","OBJECT_ID":"2025-139R","EPOCH":"2025-08-17T15:09:01.483488","MEAN_MOTION":15.39645878,"ECCENTRICITY":9.54e-5,"INCLINATION":53.161,"RA_OF_ASC_NODE":356.1635,"ARG_OF_PERICENTER":102.5967,"MEAN_ANOMALY":257.5145,"EPHEMERIS_TYPE":0,"CLASSIFICATION_TYPE":"U","NORAD_CAT_ID":64679,"ELEMENT_SET_NO":999,"REV_AT_EPOCH":902,"BSTAR":0.00074183,"MEAN_MOTION_DOT":0.00029413,"MEAN_MOTION_DDOT":0},{"OBJECT_NAME":"STARLINK-34502","OBJECT_ID":"2025-139S","EPOCH":"2025-08-17T15:02:20.444928","MEAN_MOTION":15.39624864,"ECCENTRICITY":0.0001245,"INCLINATION":53.1607,"RA_OF_ASC_NODE":356.1331,"ARG_OF_PERICENTER":92.353,"MEAN_ANOMALY":267.7617,"EPHEMERIS_TYPE":0,"CLASSIFICATION_TYPE":"U","NORAD_CAT_ID":64680,"ELEMENT_SET_NO":999,"REV_AT_EPOCH":902,"BSTAR":0.0010667,"MEAN_MOTION_DOT":0.00042512,"MEAN_MOTION_DDOT":0},{"OBJECT_NAME":"STARLINK-34553","OBJECT_ID":"2025-139T","EPOCH":"2025-08-17T15:01:51.348864","MEAN_MOTION":15.39630072,"ECCENTRICITY":0.0001241,"INCLINATION":53.1612,"RA_OF_ASC_NODE":356.1305,"ARG_OF_PERICENTER":79.3029,"MEAN_ANOMALY":280.8116,"EPHEMERIS_TYPE":0,"CLASSIFICATION_TYPE":"U","NORAD_CAT_ID":64681,"ELEMENT_SET_NO":999,"REV_AT_EPOCH":902,"BSTAR":0.0012938,"MEAN_MOTION_DOT":0.0005172,"MEAN_MOTION_DDOT":0},{"OBJECT_NAME":"STARLINK-34551","OBJECT_ID":"2025-139U","EPOCH":"2025-08-17T15:04:14.853216","MEAN_MOTION":15.4231937,"ECCENTRICITY":0.0002444,"INCLINATION":53.1647,"RA_OF_ASC_NODE":355.4235,"ARG_OF_PERICENTER":24.3942,"MEAN_ANOMALY":335.7179,"EPHEMERIS_TYPE":0,"CLASSIFICATION_TYPE":"U","NORAD_CAT_ID":64682,"ELEMENT_SET_NO":999,"REV_AT_EPOCH":903,"BSTAR":0.0008912,"MEAN_MOTION_DOT":0.00038775,"MEAN_MOTION_DDOT":0},{"OBJECT_NAME":"STARLINK-34550","OBJECT_ID":"2025-139V","EPOCH":"2025-08-17T15:15:42.622272","MEAN_MOTION":15.39621939,"ECCENTRICITY":0.0001469,"INCLINATION":53.1615,"RA_OF_ASC_NODE":356.1921,"ARG_OF_PERICENTER":100.2991,"MEAN_ANOMALY":259.818,"EPHEMERIS_TYPE":0,"CLASSIFICATION_TYPE":"U","NORAD_CAT_ID":64683,"ELEMENT_SET_NO":999,"REV_AT_EPOCH":902,"BSTAR":0.00080926,"MEAN_MOTION_DOT":0.00032109,"MEAN_MOTION_DDOT":0},{"OBJECT_NAME":"STARLINK-34485","OBJECT_ID":"2025-139W","EPOCH":"2025-08-17T13:21:41.588640","MEAN_MOTION":15.39642244,"ECCENTRICITY":0.0001127,"INCLINATION":53.1611,"RA_OF_ASC_NODE":356.4074,"ARG_OF_PERICENTER":53.9494,"MEAN_ANOMALY":306.1616,"EPHEMERIS_TYPE":0,"CLASSIFICATION_TYPE":"U","NORAD_CAT_ID":64684,"ELEMENT_SET_NO":999,"REV_AT_EPOCH":901,"BSTAR":0.00071278,"MEAN_MOTION_DOT":0.00028237,"MEAN_MOTION_DDOT":0},{"OBJECT_NAME":"STARLINK-34253","OBJECT_ID":"2025-139X","EPOCH":"2025-08-17T14:48:57.849408","MEAN_MOTION":15.39645859,"ECCENTRICITY":0.0001448,"INCLINATION":53.1609,"RA_OF_ASC_NODE":356.0745,"ARG_OF_PERICENTER":71.7016,"MEAN_ANOMALY":288.4147,"EPHEMERIS_TYPE":0,"CLASSIFICATION_TYPE":"U","NORAD_CAT_ID":64685,"ELEMENT_SET_NO":999,"REV_AT_EPOCH":902,"BSTAR":0.00062178,"MEAN_MOTION_DOT":0.00024572,"MEAN_MOTION_DDOT":0},{"OBJECT_NAME":"STARLINK-34565","OBJECT_ID":"2025-139Y","EPOCH":"2025-08-17T14:48:28.877760","MEAN_MOTION":15.39636641,"ECCENTRICITY":0.0001342,"INCLINATION":53.1605,"RA_OF_ASC_NODE":356.0703,"ARG_OF_PERICENTER":87.564,"MEAN_ANOMALY":272.5519,"EPHEMERIS_TYPE":0,"CLASSIFICATION_TYPE":"U","NORAD_CAT_ID":64686,"ELEMENT_SET_NO":999,"REV_AT_EPOCH":902,"BSTAR":0.00078793,"MEAN_MOTION_DOT":0.00031263,"MEAN_MOTION_DDOT":0},{"OBJECT_NAME":"STARLINK-34554","OBJECT_ID":"2025-139Z","EPOCH":"2025-08-17T15:08:32.527392","MEAN_MOTION":15.39619606,"ECCENTRICITY":0.0001463,"INCLINATION":53.1599,"RA_OF_ASC_NODE":356.1586,"ARG_OF_PERICENTER":93.9647,"MEAN_ANOMALY":266.1525,"EPHEMERIS_TYPE":0,"CLASSIFICATION_TYPE":"U","NORAD_CAT_ID":64687,"ELEMENT_SET_NO":999,"REV_AT_EPOCH":902,"BSTAR":0.00070758,"MEAN_MOTION_DOT":0.00028007,"MEAN_MOTION_DDOT":0},{"OBJECT_NAME":"STARLINK-34262","OBJECT_ID":"2025-139AA","EPOCH":"2025-08-17T14:35:35.475936","MEAN_MOTION":15.39646315,"ECCENTRICITY":0.000138,"INCLINATION":53.1609,"RA_OF_ASC_NODE":356.0143,"ARG_OF_PERICENTER":79.3099,"MEAN_ANOMALY":280.8061,"EPHEMERIS_TYPE":0,"CLASSIFICATION_TYPE":"U","NORAD_CAT_ID":64688,"ELEMENT_SET_NO":999,"REV_AT_EPOCH":908,"BSTAR":0.00021411,"MEAN_MOTION_DOT":8.181e-5,"MEAN_MOTION_DDOT":0},{"OBJECT_NAME":"STARLINK-34538","OBJECT_ID":"2025-139AB","EPOCH":"2025-08-17T14:41:47.612832","MEAN_MOTION":15.39618046,"ECCENTRICITY":0.0001372,"INCLINATION":53.1622,"RA_OF_ASC_NODE":356.0418,"ARG_OF_PERICENTER":102.2094,"MEAN_ANOMALY":257.9064,"EPHEMERIS_TYPE":0,"CLASSIFICATION_TYPE":"U","NORAD_CAT_ID":64689,"ELEMENT_SET_NO":999,"REV_AT_EPOCH":902,"BSTAR":0.00086749,"MEAN_MOTION_DOT":0.00034454,"MEAN_MOTION_DDOT":0},{"OBJECT_NAME":"STARLINK-34250","OBJECT_ID":"2025-139AC","EPOCH":"2025-08-17T14:42:16.611264","MEAN_MOTION":15.39646705,"ECCENTRICITY":0.0001524,"INCLINATION":53.1608,"RA_OF_ASC_NODE":356.0454,"ARG_OF_PERICENTER":74.0954,"MEAN_ANOMALY":286.0219,"EPHEMERIS_TYPE":0,"CLASSIFICATION_TYPE":"U","NORAD_CAT_ID":64690,"ELEMENT_SET_NO":999,"REV_AT_EPOCH":902,"BSTAR":0.0011716,"MEAN_MOTION_DOT":0.00046793,"MEAN_MOTION_DDOT":0},{"OBJECT_NAME":"STARLINK-34497","OBJECT_ID":"2025-142A","EPOCH":"2025-08-17T09:13:41.746944","MEAN_MOTION":15.42769605,"ECCENTRICITY":0.0002925,"INCLINATION":70.0013,"RA_OF_ASC_NODE":114.1596,"ARG_OF_PERICENTER":271.3127,"MEAN_ANOMALY":88.772,"EPHEMERIS_TYPE":0,"CLASSIFICATION_TYPE":"U","NORAD_CAT_ID":64696,"ELEMENT_SET_NO":999,"REV_AT_EPOCH":892,"BSTAR":0.00075481,"MEAN_MOTION_DOT":0.00033111,"MEAN_MOTION_DDOT":0}]
