STARLINK-34590          
1 64675U 25139M   25229.32526960  .00057256  00000+0  14307-2 0  9992
2 64675  53.1585 357.8118 0000601 103.5283 256.5788 15.39619139  8971
STARLINK-34573          
1 64676U 25139N   25229.57564093  .00034403  00000+0  86588-3 0  9999
2 64676  53.1601 356.5280 0001184  79.7580 280.3558 15.39630431  9012
STARLINK-34605          
1 64677U 25139P   25229.58335648 -.00000041  00000+0  86993-5 0  9997
2 64677  53.1620 356.3517 0002303   3.6006 110.9279 15.41252479  5938
STARLINK-34525          
1 64678U 25139Q   25229.63557297  .00038818  00000+0  97539-3 0  9998
2 64678  53.1607 356.1913 0001399  82.1599 277.9565 15.39623444  9022
STARLINK-34489          
1 64679U 25139R   25229.63126717  .00029413  00000+0  74183-3 0  9999
2 64679  53.1610 356.1635 0000954 102.5967 257.5145 15.39645878  9023
STARLINK-34502          
1 64680U 25139S   25229.62662552  .00042512  00000+0  10667-2 0  9993
2 64680  53.1607 356.1331 0001245  92.3530 267.7617 15.39624864  9029
STARLINK-34553          
1 64681U 25139T   25229.62628876  .00051720  00000+0  12938-2 0  9999
2 64681  53.1612 356.1305 0001241  79.3029 280.8116 15.39630072  9029
STARLINK-34551          
1 64682U 25139U   25229.62794969  .00038775  00000+0  89120-3 0  9990
2 64682  53.1647 355.4235 0002444  24.3942 335.7179 15.42319370  9031
STARLINK-34550          
1 64683U 25139V   25229.63590998  .00032109  00000+0  80926-3 0  9998
2 64683  53.1615 356.1921 0001469 100.2991 259.8180 15.39621939  9021
STARLINK-34485          
1 64684U 25139W   25229.55673135  .00028237  00000+0  71278-3 0  9992
2 64684  53.1611 356.4074 0001127  53.9494 306.1616 15.39642244  9014
STARLINK-34253          
1 64685U 25139X   25229.61733622  .00024572  00000+0  62178-3 0  9995
2 64685  53.1609 356.0745 0001448  71.7016 288.4147 15.39645859  9024
STARLINK-34565          
1 64686U 25139Y   25229.61700090  .00031263  00000+0  78793-3 0  9994
2 64686  53.1605 356.0703 0001342  87.5640 272.5519 15.39636641  9022
STARLINK-34554          
1 64687U 25139Z   25229.63093203  .00028007  00000+0  70758-3 0  9993
2 64687  53.1599 356.1586 0001463  93.9647 266.1525 15.39619606  9025
STARLINK-34262          
1 64688U 25139AA  25229.60804949  .00008181  00000+0  21411-3 0  9991
2 64688  53.1609 356.0143 0001380  79.3099 280.8061 15.39646315  9084
STARLINK-34538          
1 64689U 25139AB  25229.61235663  .00034454  00000+0  86749-3 0  9991
2 64689  53.1622 356.0418 0001372 102.2094 257.9064 15.39618046  9029
STARLINK-34250          
1 64690U 25139AC  25229.61269226  .00046793  00000+0  11716-2 0  9995
2 64690  53.1608 356.0454 0001524  74.0954 286.0219 15.39646705  9023
STARLINK-34497          
1 64696U 25142A   25229.38451096  .00033111  00000+0  75481-3 0  9997
2 64696  70.0013 114.1596 0002925 271.3127  88.7720 15.42769605  8928
